line1,line2,validFromUtcTime
1 00000U 00000E   26001.00000000  .00000000  00000-0  27772-4 0    01,2 00000  88.8751  60.3317 0009960 271.0674 156.5054 13.55256675    01,2026-01-01T00:00:00Z
1 00000U 00000E   26002.00000000  .00000000  00000-0  27772-4 0    02,2 00000  88.8750  60.2172 0010036 267.0368 356.6008 13.55284148    07,2026-01-02T00:00:00Z
